GLOBALSTAR M084         
1 38040U 11080A   25087.32777090 -.00000069  00000+0  19159-3 0  9995
2 38040  52.0009 294.6413 0000658 112.9710  57.9159 12.62264311612454
GLOBALSTAR M080         
1 38041U 11080B   25087.30153167 -.00000062  00000+0  23362-3 0  9991
2 38041  52.0063 296.3009 0000840 124.7616  46.1680 12.62270774612576
GLOBALSTAR M082         
1 38042U 11080C   25087.44101924 -.00000096  00000+0  40939-4 0  9998
2 38042  52.0062 251.3099 0000915  73.0859 313.0077 12.62264752613301
GLOBALSTAR M092         
1 38043U 11080D   25087.44633061 -.00000077  00000+0  14674-3 0  9996
2 38043  52.0108 341.6659 0000630  81.0327  89.8307 12.62261552611757
GLOBALSTAR M086         
1 38045U 11080F   25087.41288513 -.00000096  00000+0  44531-4 0  9990
2 38045  51.9884 245.8527 0001601 124.2165 253.8024 12.62268701613367
GLOBALSTAR M097         
1 39072U 13005A   25087.51471154 -.00000070  00000+0  19050-3 0  9995
2 39072  52.0031 160.0081 0000718 110.0955 249.9989 12.62271268560623
GLOBALSTAR M093         
1 39073U 13005B   25087.48794892 -.00000076  00000+0  15434-3 0  9997
2 39073  51.9796 153.5193 0000646 110.2821 249.8115 12.62263170560572
